{"fetched_at":"2026-04-27T21:03:10Z","count":13677,"tles":[{"name":"2026-090C","line1":"1 68828U 26090C   26114.73795262  .00038137  00000+0  20274-3 0  9993","line2":"2 68828  96.6472  34.2814 0011834 242.5779 117.4288 15.80294056   228","category":"Other"}]}